NORAD_CAT_ID,OBJECT_NAME,OBJECT_TYPE,EPOCH,MEAN_MOTION,ECCENTRICITY,INCLINATION,RA_OF_ASC_NODE,ARG_OF_PERICENTER,MEAN_ANOMALY,BSTAR,MEAN_MOTION_DOT,MEAN_MOTION_DDOT,TLE_LINE0,TLE_LINE1,TLE_LINE2,SEMIMAJOR_AXIS,PERIOD,APOGEE,PERIGEE,DECAYED
52002.0,STARLINK-3668,PAYLOAD,2023-10-14 14:37:53,15.08861717,0.000168,53.2189,356.5267,91.7175,268.4009,0.00041566,6.337e-05,0.0,0 STARLINK-3668,1 52002U 22025AY  23287.60965198  .00006337  00000-0  41566-3 0  9990,2 52002  53.2189 356.5267 0001680  91.7175 268.4009 15.08861717 90022,6917.814,95.436,540.841,538.517,0.0
52002.0,STARLINK-3668,PAYLOAD,2023-10-15 04:56:23,15.08820386,0.0001249,53.2166,353.8493,96.8159,263.2975,-0.00035289,-5.897e-05,0.0,0 STARLINK-3668,1 52002U 22025AY  23288.20582653 -.00005897  00000-0 -35289-3 0  9995,2 52002  53.2166 353.8493 0001249  96.8159 263.2975 15.08820386 90119,6917.94,95.439,540.669,538.941,0.0
52002.0,STARLINK-3668,PAYLOAD,2023-10-15 11:17:55,15.08829424,0.0001399,53.2164,352.6608,96.7846,263.3305,-8.9613e-05,-1.713e-05,0.0,0 STARLINK-3668,1 52002U 22025AY  23288.47078648 -.00001713  00000-0 -89613-4 0  9992,2 52002  53.2164 352.6608 0001399  96.7846 263.3305 15.08829424 90154,6917.913,95.438,540.746,538.81,0.0
52002.0,STARLINK-3668,PAYLOAD,2023-10-15 14:28:42,15.08827305,0.0001379,53.2163,352.0658,96.0063,264.1087,-5.5617e-05,-1.173e-05,0.0,0 STARLINK-3668,1 52002U 22025AY  23288.60326735 -.00001173  00000-0 -55617-4 0  9997,2 52002  53.2163 352.0658 0001379  96.0063 264.1087 15.08827305 88669,6917.919,95.438,540.738,538.83,0.0
52002.0,STARLINK-3668,PAYLOAD,2023-10-15 20:50:14,15.08833367,0.0001377,53.2167,350.8771,97.654,262.4608,0.00025876,3.832e-05,0.0,0 STARLINK-3668,1 52002U 22025AY  23288.86822852  .00003832  00000-0  25876-3 0  9991,2 52002  53.2167 350.8771 0001377  97.6540 262.4608 15.08833367 88700,6917.901,95.438,540.718,538.813,0.0
52002.0,STARLINK-3668,PAYLOAD,2023-10-16 07:57:57,15.08848176,0.0001414,53.2171,348.7963,100.285,259.8301,0.0011919,0.00018736,0.0,0 STARLINK-3668,1 52002U 22025AY  23289.33191130  .00018736  00000-0  11919-2 0  9993,2 52002  53.2171 348.7963 0001414 100.2850 259.8301 15.08848176 90281,6917.855,95.437,540.699,538.742,0.0
52002.0,STARLINK-3668,PAYLOAD,2023-10-16 09:33:20,15.08854406,0.0001428,53.2172,348.4989,100.1523,259.963,0.0013747,0.00021667,0.0,0 STARLINK-3668,1 52002U 22025AY  23289.39815054  .00021667  00000-0  13747-2 0  9995,2 52002  53.2172 348.4989 0001428 100.1523 259.9630 15.08854406 88789,6917.836,95.437,540.689,538.713,0.0
52002.0,STARLINK-3668,PAYLOAD,2023-10-17 10:59:30,15.08847977,0.0001771,53.2169,343.7408,96.5632,263.5562,0.00034591,5.223e-05,0.0,0 STARLINK-3668,1 52002U 22025AY  23290.45799119  .00005223  00000-0  34591-3 0  9998,2 52002  53.2169 343.7408 0001771  96.5632 263.5562 15.08847977 90456,6917.856,95.437,540.946,538.496,0.0
52002.0,STARLINK-3668,PAYLOAD,2023-10-17 20:31:49,15.08850109,0.0001532,53.2165,341.9568,89.5018,270.6149,0.00036898,5.591e-05,0.0,0 STARLINK-3668,1 52002U 22025AY  23290.85542952  .00005591  00000-0  36898-3 0  9993,2 52002  53.2165 341.9568 0001532  89.5018 270.6149 15.08850109 89004,6917.849,95.437,540.774,538.655,0.0
52002.0,STARLINK-3668,PAYLOAD,2023-10-18 12:25:40,15.08846945,0.0001674,53.2164,338.9826,87.6877,272.4307,0.00019514,2.82e-05,0.0,0 STARLINK-3668,1 52002U 22025AY  23291.51782906  .00002820  00000-0  19514-3 0  9990,2 52002  53.2164 338.9826 0001674  87.6877 272.4307 15.08846945 90613,6917.859,95.437,540.882,538.566,0.0
52002.0,STARLINK-3668,PAYLOAD,2023-10-18 20:22:36,15.088484,0.0001753,53.2164,337.4977,81.0275,279.0915,0.00019627,2.838e-05,0.0,0 STARLINK-3668,1 52002U 22025AY  23291.84902820  .00002838  00000-0  19627-3 0  9999,2 52002  53.2164 337.4977 0001753  81.0275 279.0915 15.08848400 89155,6917.855,95.437,540.932,538.507,0.0
52002.0,STARLINK-3668,PAYLOAD,2023-10-19 10:41:03,15.08855546,0.0001706,53.2166,334.8202,93.1598,266.9589,0.00033216,5.004e-05,0.0,0 STARLINK-3668,1 52002U 22025AY  23292.44518400  .00005004  00000-0  33216-3 0  9991,2 52002  53.2166 334.8202 0001706  93.1598 266.9589 15.08855546 89240,6917.833,95.437,540.878,538.518,0.0
52002.0,STARLINK-3668,PAYLOAD,2023-10-19 20:13:22,15.08850675,0.0001902,53.2173,333.0361,84.8325,275.2884,0.00022802,3.344e-05,0.0,0 STARLINK-3668,1 52002U 22025AY  23292.84262553  .00003344  00000-0  22802-3 0  9994,2 52002  53.2173 333.0361 0001902  84.8325 275.2884 15.08850675 90812,6917.848,95.437,541.029,538.397,0.0
52002.0,STARLINK-3668,PAYLOAD,2023-10-20 08:56:28,15.08835914,0.0001793,53.2169,330.6575,82.4741,277.6455,-7.4345e-05,-1.471e-05,0.0,0 STARLINK-3668,1 52002U 22025AY  23293.37255102 -.00001471  00000-0 -74345-4 0  9996,2 52002  53.2169 330.6575 0001793  82.4741 277.6455 15.08835914 90898,6917.893,95.438,540.998,538.518,0.0
52002.0,STARLINK-3668,PAYLOAD,2023-10-20 12:07:14,15.08839685,0.0001825,53.2173,330.0615,83.3638,276.7562,2.9968e-05,1.89e-06,0.0,0 STARLINK-3668,1 52002U 22025AY  23293.50502987  .00000189  00000-0  29968-4 0  9991,2 52002  53.2173 330.0615 0001825  83.3638 276.7562 15.08839685 89406,6917.881,95.438,541.009,538.484,0.0
52002.0,STARLINK-3668,PAYLOAD,2023-10-21 11:58:01,15.0884908,0.0001586,53.2168,325.5989,97.8561,262.2611,0.00028526,4.256e-05,0.0,0 STARLINK-3668,1 52002U 22025AY  23294.49862865  .00004256  00000-0  28526-3 0  9991,2 52002  53.2168 325.5989 0001586  97.8561 262.2611 15.08849080 89553,6917.853,95.437,540.815,538.62,0.0
52002.0,STARLINK-3668,PAYLOAD,2023-10-22 02:16:30,15.08840355,0.0001721,53.2176,322.9258,85.384,274.7349,0.00024701,3.645e-05,0.0,0 STARLINK-3668,1 52002U 22025AY  23295.09479726  .00003645  00000-0  24701-3 0  9990,2 52002  53.2176 322.9258 0001721  85.3840 274.7349 15.08840355 91156,6917.879,95.438,540.935,538.554,0.0
52002.0,STARLINK-3668,PAYLOAD,2023-10-22 08:38:02,15.08846153,0.0001691,53.2171,321.7353,85.207,274.9116,0.00030721,4.605e-05,0.0,0 STARLINK-3668,1 52002U 22025AY  23295.35975175  .00004605  00000-0  30721-3 0  9994,2 52002  53.2171 321.7353 0001691  85.2070 274.9116 15.08846153 89685,6917.862,95.437,540.896,538.557,0.0
52002.0,STARLINK-3668,PAYLOAD,2023-10-23 08:28:49,15.08843625,0.0001615,53.217,317.2721,87.3705,272.7472,0.00011421,1.53e-05,0.0,0 STARLINK-3668,1 52002U 22025AY  23296.35335339  .00001530  00000-0  11421-3 0  9997,2 52002  53.2170 317.2721 0001615  87.3705 272.7472 15.08843625 91345,6917.869,95.437,540.852,538.617,0.0
52002.0,STARLINK-3668,PAYLOAD,2023-10-23 18:01:08,15.08838339,0.0001545,53.2168,315.4896,84.916,275.2008,0.00012874,1.761e-05,0.0,0 STARLINK-3668,1 52002U 22025AY  23296.75079555  .00001761  00000-0  12874-3 0  9995,2 52002  53.2168 315.4896 0001545  84.9160 275.2008 15.08838339 89891,6917.885,95.438,540.819,538.682,0.0
52002.0,STARLINK-3668,PAYLOAD,2023-10-24 01:58:04,15.08836529,0.0001654,53.2172,314.0055,90.5718,269.5464,5.1617e-05,5.33e-06,0.0,0 STARLINK-3668,1 52002U 22025AY  23297.08199815  .00000533  00000-0  51617-4 0  9999,2 52002  53.2172 314.0055 0001654  90.5718 269.5464 15.08836529 91457,6917.891,95.438,540.9,538.612,0.0
52002.0,STARLINK-3668,PAYLOAD,2023-10-24 08:19:37,15.08838415,0.0001603,53.2171,312.8157,84.1182,275.9993,7.3151e-05,8.76e-06,0.0,0 STARLINK-3668,1 52002U 22025AY  23297.34695768  .00000876  00000-0  73151-4 0  9993,2 52002  53.2171 312.8157 0001603  84.1182 275.9993 15.08838415 89982,6917.885,95.438,540.859,538.641,0.0
52002.0,STARLINK-3668,PAYLOAD,2023-10-25 09:45:46,15.08851691,0.0001607,53.2166,308.057,86.2838,273.8338,0.00028164,4.199e-05,0.0,0 STARLINK-3668,1 52002U 22025AY  23298.40679291  .00004199  00000-0  28164-3 0  9999,2 52002  53.2166 308.0570 0001607  86.2838 273.8338 15.08851691 91655,6917.845,95.437,540.821,538.598,0.0
52002.0,STARLINK-3668,PAYLOAD,2023-10-26 00:04:15,15.08841901,0.0002013,53.2169,305.3805,87.0141,273.1081,0.00012958,1.775e-05,0.0,0 STARLINK-3668,1 52002U 22025AY  23299.00295820  .00001775  00000-0  12958-3 0  9999,2 52002  53.2169 305.3805 0002013  87.0141 273.1081 15.08841901 91748,6917.875,95.437,541.132,538.347,0.0
52002.0,STARLINK-3668,PAYLOAD,2023-10-26 09:36:34,15.08842789,0.0001644,53.2158,303.596,83.8802,276.2377,0.00012805,1.751e-05,0.0,0 STARLINK-3668,1 52002U 22025AY  23299.40039809  .00001751  00000-0  12805-3 0  9991,2 52002  53.2158 303.5960 0001644  83.8802 276.2377 15.08842789 90291,6917.872,95.437,540.874,538.6,0.0
52002.0,STARLINK-3668,PAYLOAD,2023-10-26 17:33:30,15.08842653,0.0001652,53.2158,302.109,83.5428,276.5753,0.0001007,1.315e-05,0.0,0 STARLINK-3668,1 52002U 22025AY  23299.73159820  .00001315  00000-0  10070-3 0  9991,2 52002  53.2158 302.1090 0001652  83.5428 276.5753 15.08842653 90347,6917.872,95.437,540.88,538.594,0.0
52002.0,STARLINK-3668,PAYLOAD,2023-10-27 04:41:11,15.08851647,0.0001682,53.2162,300.0275,85.6397,274.4788,0.00020632,2.998e-05,0.0,0 STARLINK-3668,1 52002U 22025AY  23300.19527365  .00002998  00000-0  20632-3 0  9990,2 52002  53.2162 300.0275 0001682  85.6397 274.4788 15.08851647 91928,6917.845,95.437,540.873,538.546,0.0
52002.0,STARLINK-3668,PAYLOAD,2023-10-27 09:27:20,15.08858198,0.000155,53.2151,299.1349,88.015,272.102,0.00041785,6.372e-05,0.0,0 STARLINK-3668,1 52002U 22025AY  23300.39399050  .00006372  00000-0  41785-3 0  9992,2 52002  53.2151 299.1349 0001550  88.0150 272.1020 15.08858198 90442,6917.825,95.436,540.762,538.618,0.0
52002.0,STARLINK-3668,PAYLOAD,2023-10-27 17:24:16,15.08842899,0.0001581,53.2162,297.645,102.4985,257.6184,0.00015497,2.179e-05,0.0,0 STARLINK-3668,1 52002U 22025AY  23300.72519503  .00002179  00000-0  15497-3 0  9998,2 52002  53.2162 297.6450 0001581 102.4985 257.6184 15.08842899 92005,6917.872,95.437,540.83,538.643,0.0
52002.0,STARLINK-3668,PAYLOAD,2023-10-28 09:18:08,15.08841421,0.0001641,53.2142,294.6736,99.4907,260.6271,0.00013143,1.804e-05,0.0,0 STARLINK-3668,1 52002U 22025AY  23301.38759693  .00001804  00000-0  13143-3 0  9997,2 52002  53.2142 294.6736 0001641  99.4907 260.6271 15.08841421 90596,6917.876,95.437,540.876,538.606,0.0
